start=new Date('2021-10-14T00:00:00.000Z').valueOf();
sats=[{"MEAN_ANOMALY":"260.9840","TLE_LINE1":"1 44932U 20001U   21286.52962631  .00001390  00000-0  11217-3 0  9996","LAUNCH_DATE":"2020-01-07","MEAN_MOTION":"15.06399700","EPOCH":"2021-10-13T12:42:39.713184","BSTAR":"0.00011217000000","MEAN_MOTION_DOT":"0.00001390","OBJECT_TYPE":"PAYLOAD","RA_OF_ASC_NODE":"5.9442","MEAN_MOTION_DDOT":"0.0000000000000","APOAPSIS":"548.271","REF_FRAME":"TEME","OBJECT_ID":"2020-001U","DECAY_DATE":null,"ELEMENT_SET_NO":"999","SEMIMAJOR_AXIS":"6925.349","ARG_OF_PERICENTER":"99.1321","CENTER_NAME":"EARTH","MEAN_ELEMENT_THEORY":"SGP4","PERIAPSIS":"546.158","ECCENTRICITY":"0.00015250","PERIOD":"95.592","TIME_SYSTEM":"UTC","OBJECT_NAME":"STARLINK-1130","REV_AT_EPOCH":"9869","FILE":"3160550","COUNTRY_CODE":"US","NORAD_CAT_ID":"44932","CLASSIFICATION_TYPE":"U","RCS_SIZE":"LARGE","GP_ID":"187043873","SITE":"AFETR","TLE_LINE2":"2 44932  53.0556   5.9442 0001525  99.1321 260.9840 15.06399700 98691","EPHEMERIS_TYPE":"0","INCLINATION":"53.0556"},{"MEAN_MOTION_DOT":"-0.00000279","BSTAR":"0.00000012980000","EPOCH":"2021-10-13T11:44:15.936576","REF_FRAME":"TEME","APOAPSIS":"547.748","MEAN_MOTION_DDOT":"0.0000000000000","RA_OF_ASC_NODE":"6.1176","OBJECT_TYPE":"PAYLOAD","LAUNCH_DATE":"2020-01-07","TLE_LINE1":"1 44933U 20001V   21286.48907334 -.00000279  00000-0  12980-6 0  9998","MEAN_ANOMALY":"328.5812","MEAN_MOTION":"15.06405912","ELEMENT_SET_NO":"999","MEAN_ELEMENT_THEORY":"SGP4","CENTER_NAME":"EARTH","SEMIMAJOR_AXIS":"6925.330","ARG_OF_PERICENTER":"31.5224","DECAY_DATE":null,"OBJECT_ID":"2020-001V","NORAD_CAT_ID":"44933","COUNTRY_CODE":"US","FILE":"3160550","RCS_SIZE":"LARGE","CLASSIFICATION_TYPE":"U","PERIOD":"95.592","ECCENTRICITY":"0.00007980","PERIAPSIS":"546.643","REV_AT_EPOCH":"9874","OBJECT_NAME":"STARLINK-1144","TIME_SYSTEM":"UTC","INCLINATION":"53.0559","EPHEMERIS_TYPE":"0","GP_ID":"187043868","TLE_LINE2":"2 44933  53.0559   6.1176 0000798  31.5224 328.5812 15.06405912 98744","SITE":"AFETR"},{"OBJECT_ID":"2020-001W","DECAY_DATE":null,"ELEMENT_SET_NO":"999","MEAN_ELEMENT_THEORY":"SGP4","SEMIMAJOR_AXIS":"6925.338","ARG_OF_PERICENTER":"91.0619","CENTER_NAME":"EARTH","MEAN_ANOMALY":"269.0512","TLE_LINE1":"1 44934U 20001W   21286.50197723  .00001733  00000-0  13516-3 0  9993","LAUNCH_DATE":"2020-01-07","MEAN_MOTION":"15.06403434","EPOCH":"2021-10-13T12:02:50.832672","MEAN_MOTION_DOT":"0.00001733","BSTAR":"0.00013516000000","MEAN_MOTION_DDOT":"0.0000000000000","OBJECT_TYPE":"PAYLOAD","RA_OF_ASC_NODE":"346.0588","REF_FRAME":"TEME","APOAPSIS":"548.060","GP_ID":"187042517","SITE":"AFETR","TLE_LINE2":"2 44934  53.0544 346.0588 0001237  91.0619 269.0512 15.06403434 97731","EPHEMERIS_TYPE":"0","INCLINATION":"53.0544","PERIOD":"95.592","PERIAPSIS":"546.346","ECCENTRICITY":"0.00012370","TIME_SYSTEM":"UTC","OBJECT_NAME":"STARLINK-1071","REV_AT_EPOCH":"9773","COUNTRY_CODE":"US","FILE":"3160492","NORAD_CAT_ID":"44934","RCS_SIZE":"LARGE","CLASSIFICATION_TYPE":"U"},{"MEAN_MOTION":"15.71495182","LAUNCH_DATE":"2020-01-07","MEAN_ANOMALY":"333.1442","TLE_LINE1":"1 44935U 20001X   21286.38354427  .00015541  00000-0  12344-3 0  9996","REF_FRAME":"TEME","APOAPSIS":"356.348","MEAN_MOTION_DDOT":"0.0000000000000","RA_OF_ASC_NODE":"325.7283","OBJECT_TYPE":"PAYLOAD","MEAN_MOTION_DOT":"0.00015541","BSTAR":"0.00012344000000","EPOCH":"2021-10-13T09:12:18.224928","DECAY_DATE":null,"OBJECT_ID":"2020-001X","MEAN_ELEMENT_THEORY":"SGP4","SEMIMAJOR_AXIS":"6732.760","CENTER_NAME":"EARTH","ARG_OF_PERICENTER":"26.9708","ELEMENT_SET_NO":"999","REV_AT_EPOCH":"9801","TIME_SYSTEM":"UTC","OBJECT_NAME":"STARLINK-1072","PERIOD":"91.632","PERIAPSIS":"352.902","ECCENTRICITY":"0.00025590","RCS_SIZE":"LARGE","CLASSIFICATION_TYPE":"U","NORAD_CAT_ID":"44935","COUNTRY_CODE":"US","FILE":"3160689","TLE_LINE2":"2 44935  53.0536 325.7283 0002559  26.9708 333.1442 15.71495182 98013","SITE":"AFETR","GP_ID":"187066537","INCLINATION":"53.0536","EPHEMERIS_TYPE":"0"},{"PERIOD":"89.946","PERIAPSIS":"268.070","ECCENTRICITY":"0.00055500","REV_AT_EPOCH":"9868","OBJECT_NAME":"STARLINK-1078","TIME_SYSTEM":"UTC","NORAD_CAT_ID":"44936","COUNTRY_CODE":"US","FILE":"3161113","RCS_SIZE":"LARGE","CLASSIFICATION_TYPE":"U","GP_ID":"187078952","TLE_LINE2":"2 44936  53.0559 279.8812 0005550 102.7566 259.6318 16.00959948 98680","SITE":"AFETR","INCLINATION":"53.0559","EPHEMERIS_TYPE":"0","LAUNCH_DATE":"2020-01-07","TLE_LINE1":"1 44936U 20001Y   21286.76462963  .00102316  15765-4  19000-3 0  9995","MEAN_ANOMALY":"259.6318","MEAN_MOTION":"16.00959948","MEAN_MOTION_DOT":"0.00102316","BSTAR":"0.00019000000000","EPOCH":"2021-10-13T18:21:04.000032","REF_FRAME":"TEME","APOAPSIS":"275.452","MEAN_MOTION_DDOT":"0.0000157650000","RA_OF_ASC_NODE":"279.8812","OBJECT_TYPE":"PAYLOAD","DECAY_DATE":null,"OBJECT_ID":"2020-001Y","ELEMENT_SET_NO":"999","MEAN_ELEMENT_THEORY":"SGP4","CENTER_NAME":"EARTH","SEMIMAJOR_AXIS":"6649.896","ARG_OF_PERICENTER":"102.7566"},{"FILE":"3160689","COUNTRY_CODE":"US","NORAD_CAT_ID":"44937","CLASSIFICATION_TYPE":"U","RCS_SIZE":"LARGE","ECCENTRICITY":"0.00009460","PERIAPSIS":"546.529","PERIOD":"95.592","TIME_SYSTEM":"UTC","OBJECT_NAME":"STARLINK-1079","REV_AT_EPOCH":"9773","EPHEMERIS_TYPE":"0","INCLINATION":"53.0540","GP_ID":"187067040","SITE":"AFETR","TLE_LINE2":"2 44937  53.0540 346.1661 0000946  97.7627 262.3469 15.06409520 97730","EPOCH":"2021-10-13T11:31:00.927840","BSTAR":"0.00013134000000","MEAN_MOTION_DOT":"0.00001676","RA_OF_ASC_NODE":"346.1661","OBJECT_TYPE":"PAYLOAD","MEAN_MOTION_DDOT":"0.0000000000000","APOAPSIS":"547.840","REF_FRAME":"TEME","MEAN_ANOMALY":"262.3469","TLE_LINE1":"1 44937U 20001Z   21286.47987185  .00001676  00000-0  13134-3 0  9993","LAUNCH_DATE":"2020-01-07","MEAN_MOTION":"15.06409520","ELEMENT_SET_NO":"999","SEMIMAJOR_AXIS":"6925.319","ARG_OF_PERICENTER":"97.7627","CENTER_NAME":"EARTH","MEAN_ELEMENT_THEORY":"SGP4","OBJECT_ID":"2020-001Z","DECAY_DATE":null},{"REV_AT_EPOCH":"9771","TIME_SYSTEM":"UTC","OBJECT_NAME":"STARLINK-1082","ECCENTRICITY":"0.00010910","PERIAPSIS":"546.463","PERIOD":"95.592","CLASSIFICATION_TYPE":"U","RCS_SIZE":"LARGE","NORAD_CAT_ID":"44938","FILE":"3160689","COUNTRY_CODE":"US","TLE_LINE2":"2 44938  53.0551 346.6034 0001091 104.0551 256.0559 15.06398376 97716","SITE":"AFETR","GP_ID":"187065788","INCLINATION":"53.0551","EPHEMERIS_TYPE":"0","MEAN_MOTION":"15.06398376","LAUNCH_DATE":"2020-01-07","TLE_LINE1":"1 44938U 20001AA  21286.38034718 -.00001316  00000-0 -69488-4 0  9996","MEAN_ANOMALY":"256.0559","APOAPSIS":"547.974","REF_FRAME":"TEME","RA_OF_ASC_NODE":"346.6034","OBJECT_TYPE":"PAYLOAD","MEAN_MOTION_DDOT":"0.0000000000000","BSTAR":"-0.00006948800000","MEAN_MOTION_DOT":"-0.00001316","EPOCH":"2021-10-13T09:07:41.996352","DECAY_DATE":null,"OBJECT_ID":"2020-001AA","SEMIMAJOR_AXIS":"6925.354","ARG_OF_PERICENTER":"104.0551","CENTER_NAME":"EARTH","MEAN_ELEMENT_THEORY":"SGP4","ELEMENT_SET_NO":"999"},{"BSTAR":"-0.00006052600000","MEAN_MOTION_DOT":"-0.00001183","EPOCH":"2021-10-13T12:29:23.596800","APOAPSIS":"548.023","REF_FRAME":"TEME","RA_OF_ASC_NODE":"345.9849","OBJECT_TYPE":"PAYLOAD","MEAN_MOTION_DDOT":"0.0000000000000","LAUNCH_DATE":"2020-01-07","TLE_LINE1":"1 44939U 20001AB  21286.52041200 -.00001183  00000-0 -60526-4 0  9993","MEAN_ANOMALY":"260.7004","MEAN_MOTION":"15.06398248","ELEMENT_SET_NO":"999","SEMIMAJOR_AXIS":"6925.354","CENTER_NAME":"EARTH","ARG_OF_PERICENTER":"99.4116","MEAN_ELEMENT_THEORY":"SGP4","DECAY_DATE":null,"OBJECT_ID":"2020-001AB","NORAD_CAT_ID":"44939","FILE":"3161149","COUNTRY_CODE":"US","CLASSIFICATION_TYPE":"U","RCS_SIZE":"LARGE","PERIAPSIS":"546.415","ECCENTRICITY":"0.00011610","PERIOD":"95.592","REV_AT_EPOCH":"9773","TIME_SYSTEM":"UTC","OBJECT_NAME":"STARLINK-1083","INCLINATION":"53.0539","EPHEMERIS_TYPE":"0","GP_ID":"187098679","TLE_LINE2":"2 44939  53.0539 345.9849 0001161  99.4116 260.7004 15.06398248 97738","SITE":"AFETR"},{"MEAN_ANOMALY":"271.9011","TLE_LINE1":"1 44940U 20001AC  21286.46511515 -.00004359  00000-0 -27378-3 0  9994","LAUNCH_DATE":"2020-01-07","MEAN_MOTION":"15.06415996","EPOCH":"2021-10-13T11:09:45.948960","MEAN_MOTION_DOT":"-0.00004359","BSTAR":"-0.00027378000000","MEAN_MOTION_DDOT":"0.0000000000000","RA_OF_ASC_NODE":"346.2224","OBJECT_TYPE":"PAYLOAD","REF_FRAME":"TEME","APOAPSIS":"547.989","OBJECT_ID":"2020-001AC","DECAY_DATE":null,"ELEMENT_SET_NO":"999","MEAN_ELEMENT_THEORY":"SGP4","SEMIMAJOR_AXIS":"6925.300","CENTER_NAME":"EARTH","ARG_OF_PERICENTER":"88.2114","PERIOD":"95.591","PERIAPSIS":"546.340","ECCENTRICITY":"0.00011900","TIME_SYSTEM":"UTC","OBJECT_NAME":"STARLINK-1091","REV_AT_EPOCH":"9772","COUNTRY_CODE":"US","FILE":"3160689","NORAD_CAT_ID":"44940","RCS_SIZE":"LARGE","CLASSIFICATION_TYPE":"U","GP_ID":"187066790","SITE":"AFETR","TLE_LINE2":"2 44940  53.0554 346.2224 0001190  88.2114 271.9011 15.06415996 97725","EPHEMERIS_TYPE":"0","INCLINATION":"53.0554"},{"ELEMENT_SET_NO":"999","CENTER_NAME":"EARTH","SEMIMAJOR_AXIS":"6925.333","ARG_OF_PERICENTER":"90.0713","MEAN_ELEMENT_THEORY":"SGP4","DECAY_DATE":null,"OBJECT_ID":"2020-001AD","BSTAR":"0.00026187000000","MEAN_MOTION_DOT":"0.00003622","EPOCH":"2021-10-13T11:41:38.998752","APOAPSIS":"548.123","REF_FRAME":"TEME","RA_OF_ASC_NODE":"346.1250","OBJECT_TYPE":"PAYLOAD","MEAN_MOTION_DDOT":"0.0000000000000","LAUNCH_DATE":"2020-01-07","TLE_LINE1":"1 44941U 20001AD  21286.48725693  .00003622  00000-0  26187-3 0  9998","MEAN_ANOMALY":"270.0429","MEAN_MOTION":"15.06405183","INCLINATION":"53.0551","EPHEMERIS_TYPE":"0","GP_ID":"187043170","TLE_LINE2":"2 44941  53.0551 346.1250 0001336  90.0713 270.0429 15.06405183 97730","SITE":"AFETR","NORAD_CAT_ID":"44941","FILE":"3160514","COUNTRY_CODE":"US","CLASSIFICATION_TYPE":"U","RCS_SIZE":"LARGE","ECCENTRICITY":"0.00013360","PERIAPSIS":"546.272","PERIOD":"95.592","REV_AT_EPOCH":"9773","TIME_SYSTEM":"UTC","OBJECT_NAME":"STARLINK-1094"}];
